COSMOS 2251 DEB         
1 36559U 93036BDV 26065.44926720  .00010304  00000+0  56024-2 0  9998
2 36559  74.1276 226.5567 0259916 239.7539 117.7635 13.96598128822622
COSMOS 2251 DEB         
1 36614U 93036BEC 26063.26668117  .00010623  00000+0  21425-2 0  9992
2 36614  74.0242  18.6513 0012390  66.0433 294.2029 14.61498176668030
COSMOS 2251 DEB         
1 36622U 93036BEL 26054.53029146  .00004528  00000+0  62497-3 0  9996
2 36622  74.0161   2.6562 0065484 120.9498 239.8134 14.76968215678247
COSMOS 2251 DEB         
1 36632U 93036BEW 26053.60885327  .00002661  00000+0  78680-3 0  9992
2 36632  74.0025 158.5593 0034937 253.8426 105.8884 14.43608641662524
COSMOS 2251 DEB         
1 37084U 93036BFE 26066.13778228  .00010827  00000+0  74472-3 0  9995
2 37084  74.0306 349.3261 0092205  46.4493 314.4305 15.02517078675341
COSMOS 2251 DEB         
1 37089U 93036BFK 26064.05688876  .00015024  00000+0  31251-2 0  9999
2 37089  74.0391 350.1219 0129108  70.2090 291.2940 14.54905240673066
COSMOS 2251 DEB         
1 37094U 93036BFQ 26049.22443480  .00003954  00000+0  12532-2 0  9997
2 37094  74.1128 357.4013 0084952 304.6936  54.6234 14.38322796854769
COSMOS 2251 DEB         
1 37095U 93036BFR 26061.29822298  .00001782  00000+0  98013-3 0  9993
2 37095  73.8479  49.7342 0188031  93.7026 268.5631 14.03767007637520
COSMOS 2251 DEB         
1 37101U 93036BFX 26060.99961763  .00005702  00000+0  10266-2 0  9997
2 37101  74.0339 301.2001 0041685   5.5095 354.6523 14.66239686668330
COSMOS 2251 DEB         
1 37108U 93036BGE 26065.57476719  .00003569  00000+0  10420-2 0  9996
2 37108  74.0421 285.2853 0091161 340.4570  19.3098 14.42042309867159
COSMOS 2251 DEB         
1 37126U 93036BGY 26060.06503348  .00001671  00000+0  23487-3 0  9994
2 37126  73.9501 201.0621 0120701  60.0186 301.2902 14.73348638 92522
COSMOS 2251 DEB         
1 37270U 93036BHJ 26065.34679787  .00007236  00000+0  57248-2 0  9995
2 37270  73.9358 199.3544 0395215 196.2632 162.5497 13.60653096782061
COSMOS 2251 DEB         
1 37278U 93036BHS 26062.73774484  .00002617  00000+0  87851-3 0  9995
2 37278  73.7837 203.0888 0298143  11.0810  47.5735 14.15529534649752
COSMOS 2251 DEB         
1 37280U 93036BHU 26060.59185413  .00002241  00000+0  98092-3 0  9990
2 37280  74.0295 276.0526 0130704  25.3733 335.3752 14.19820470584422
COSMOS 2251 DEB         
1 37292U 93036BJG 26065.87883705  .00002566  00000+0  13494-2 0  9990
2 37292  74.1151 263.9487 0209177 245.6413 112.2762 14.03980938610298
COSMOS 2251 DEB         
1 37295U 93036BJK 26063.16396284  .00003913  00000+0  71054-3 0  9998
2 37295  74.0058 124.5875 0047299 282.9247  76.6641 14.65827607834976
